{
  "type": "FeatureCollection",
  "features": [
    {
      "type": "Feature",
      "properties": {
        "norad_id": 66858,
        "name": "STARLINK-35118",
        "group": "last-30-days",
        "lat": 42.61375683377506,
        "lon": -169.95111881338903,
        "alt_km": 308.93991761284633,
        "timestamp": "2025-12-14T20:40:30.517073+00:00",
        "meta_object_name": "STARLINK-35118",
        "meta_object_id": "2025-281L",
        "meta_epoch": "2025-12-14T06:00:02.999808",
        "meta_mean_motion": 15.87314768,
        "meta_eccentricity": 0.0001545,
        "meta_inclination": 43.0007,
        "meta_ra_of_asc_node": 112.9736,
        "meta_arg_of_pericenter": 269.315,
        "meta_mean_anomaly": 277.5464,
        "meta_ephemeris_type": 0,
        "meta_classification_type": "U",
        "meta_norad_cat_id": 66858,
        "meta_element_set_no": 999,
        "meta_rev_at_epoch": 143,
        "meta_bstar": -0.0050772558,
        "meta_mean_motion_dot": -0.01227023,
        "meta_mean_motion_ddot": 0,
        "tle_line1": "1 66858U 25281L   25348.25003472 -.01227023  00000+0 -50773-2 0  9998",
        "tle_line2": "2 66858  43.0007 112.9736 0001545 269.3150 277.5464 15.87314768  1432"
      },
      "geometry": {
        "type": "Point",
        "coordinates": [
          -169.95111881338903,
          42.61375683377506
        ]
      }
    },
    {
      "type": "Feature",
      "properties": {
        "norad_id": 66859,
        "name": "STARLINK-35646",
        "group": "last-30-days",
        "lat": 42.85964741564591,
        "lon": -166.05188764321838,
        "alt_km": 308.9373069449284,
        "timestamp": "2025-12-14T20:40:30.517085+00:00",
        "meta_object_name": "STARLINK-35646",
        "meta_object_id": "2025-281M",
        "meta_epoch": "2025-12-14T06:00:02.999808",
        "meta_mean_motion": 15.87315582,
        "meta_eccentricity": 0.00015403,
        "meta_inclination": 43.0006,
        "meta_ra_of_asc_node": 112.9667,
        "meta_arg_of_pericenter": 269.3716,
        "meta_mean_anomaly": 280.3754,
        "meta_ephemeris_type": 0,
        "meta_classification_type": "U",
        "meta_norad_cat_id": 66859,
        "meta_element_set_no": 999,
        "meta_rev_at_epoch": 164,
        "meta_bstar": -0.0051092971,
        "meta_mean_motion_dot": -0.01233945,
        "meta_mean_motion_ddot": 0,
        "tle_line1": "1 66859U 25281M   25348.25003472 -.01233945  00000+0 -51093-2 0  9995",
        "tle_line2": "2 66859  43.0006 112.9667 0001540 269.3716 280.3754 15.87315582  1640"
      },
      "geometry": {
        "type": "Point",
        "coordinates": [
          -166.05188764321838,
          42.85964741564591
        ]
      }
    },
    {
      "type": "Feature",
      "properties": {
        "norad_id": 66860,
        "name": "STARLINK-35987",
        "group": "last-30-days",
        "lat": 42.01407527565445,
        "lon": -146.024369779913,
        "alt_km": 309.3191118225932,
        "timestamp": "2025-12-14T20:40:30.517097+00:00",
        "meta_object_name": "STARLINK-35987",
        "meta_object_id": "2025-281N",
        "meta_epoch": "2025-12-14T06:00:02.999808",
        "meta_mean_motion": 15.87322925,
        "meta_eccentricity": 0.0001701,
        "meta_inclination": 43.0006,
        "meta_ra_of_asc_node": 112.929,
        "meta_arg_of_pericenter": 263.0245,
        "meta_mean_anomaly": 301.5619,
        "meta_ephemeris_type": 0,
        "meta_classification_type": "U",
        "meta_norad_cat_id": 66860,
        "meta_element_set_no": 999,
        "meta_rev_at_epoch": 164,
        "meta_bstar": -0.0053084276,
        "meta_mean_motion_dot": -0.01276997,
        "meta_mean_motion_ddot": 0,
        "tle_line1": "1 66860U 25281N   25348.25003472 -.01276997  00000+0 -53084-2 0  9993",
        "tle_line2": "2 66860  43.0006 112.9290 0001701 263.0245 301.5619 15.87322925  1646"
      },
      "geometry": {
        "type": "Point",
        "coordinates": [
          -146.024369779913,
          42.01407527565445
        ]
      }
    },
    {
      "type": "Feature",
      "properties": {
        "norad_id": 66861,
        "name": "STARLINK-35991",
        "group": "last-30-days",
        "lat": 42.9465552045585,
        "lon": -158.06504575638172,
        "alt_km": 309.11122589003935,
        "timestamp": "2025-12-14T20:40:30.517107+00:00",
        "meta_object_name": "STARLINK-35991",
        "meta_object_id": "2025-281P",
        "meta_epoch": "2025-12-14T06:00:02.999808",
        "meta_mean_motion": 15.87320617,
        "meta_eccentricity": 0.00016702,
        "meta_inclination": 43.0007,
        "meta_ra_of_asc_node": 112.9519,
        "meta_arg_of_pericenter": 264.5157,
        "meta_mean_anomaly": 291.1129,
        "meta_ephemeris_type": 0,
        "meta_classification_type": "U",
        "meta_norad_cat_id": 66861,
        "meta_element_set_no": 999,
        "meta_rev_at_epoch": 164,
        "meta_bstar": -0.0052136924,
        "meta_mean_motion_dot": -0.01256656,
        "meta_mean_motion_ddot": 0,
        "tle_line1": "1 66861U 25281P   25348.25003472 -.01256656  00000+0 -52137-2 0  9992",
        "tle_line2": "2 66861  43.0007 112.9519 0001670 264.5157 291.1129 15.87320617  1641"
      },
      "geometry": {
        "type": "Point",
        "coordinates": [
          -158.06504575638172,
          42.9465552045585
        ]
      }
    },
    {
      "type": "Feature",
      "properties": {
        "norad_id": 66862,
        "name": "STARLINK-35974",
        "group": "last-30-days",
        "lat": 42.97471609115394,
        "lon": -161.86692673248166,
        "alt_km": 308.99308779137846,
        "timestamp": "2025-12-14T20:40:30.517118+00:00",
        "meta_object_name": "STARLINK-35974",
        "meta_object_id": "2025-281Q",
        "meta_epoch": "2025-12-14T06:00:02.999808",
        "meta_mean_motion": 15.87314835,
        "meta_eccentricity": 0.00015627,
        "meta_inclination": 43.0006,
        "meta_ra_of_asc_node": 112.959,
        "meta_arg_of_pericenter": 267.6121,
        "meta_mean_anomaly": 285.2228,
        "meta_ephemeris_type": 0,
        "meta_classification_type": "U",
        "meta_norad_cat_id": 66862,
        "meta_element_set_no": 999,
        "meta_rev_at_epoch": 154,
        "meta_bstar": -0.0051565512,
        "meta_mean_motion_dot": -0.01244046,
        "meta_mean_motion_ddot": 0,
        "tle_line1": "1 66862U 25281Q   25348.25003472 -.01244046  00000+0 -51566-2 0  9998",
        "tle_line2": "2 66862  43.0006 112.9590 0001562 267.6121 285.2228 15.87314835  1543"
      },
      "geometry": {
        "type": "Point",
        "coordinates": [
          -161.86692673248166,
          42.97471609115394
        ]
      }
    },
    {
      "type": "Feature",
      "properties": {
        "norad_id": 66863,
        "name": "STARLINK-36134",
        "group": "last-30-days",
        "lat": 42.73129676802166,
        "lon": -153.28206536882604,
        "alt_km": 309.15076916716316,
        "timestamp": "2025-12-14T20:40:30.517128+00:00",
        "meta_object_name": "STARLINK-36134",
        "meta_object_id": "2025-281R",
        "meta_epoch": "2025-12-14T06:00:02.999808",
        "meta_mean_motion": 15.87306052,
        "meta_eccentricity": 0.00015843,
        "meta_inclination": 43.001,
        "meta_ra_of_asc_node": 112.9428,
        "meta_arg_of_pericenter": 267.7621,
        "meta_mean_anomaly": 291.4228,
        "meta_ephemeris_type": 0,
        "meta_classification_type": "U",
        "meta_norad_cat_id": 66863,
        "meta_element_set_no": 999,
        "meta_rev_at_epoch": 164,
        "meta_bstar": -0.0052445419,
        "meta_mean_motion_dot": -0.01262368,
        "meta_mean_motion_ddot": 0,
        "tle_line1": "1 66863U 25281R   25348.25003472 -.01262368  00000+0 -52445-2 0  9993",
        "tle_line2": "2 66863  43.0010 112.9428 0001584 267.7621 291.4228 15.87306052  1641"
      },
      "geometry": {
        "type": "Point",
        "coordinates": [
          -153.28206536882604,
          42.73129676802166
        ]
      }
    },
    {
      "type": "Feature",
      "properties": {
        "norad_id": 66864,
        "name": "STARLINK-36070",
        "group": "last-30-days",
        "lat": 42.44047881253706,
        "lon": -149.73649793226193,
        "alt_km": 309.0516519928442,
        "timestamp": "2025-12-14T20:40:30.517138+00:00",
        "meta_object_name": "STARLINK-36070",
        "meta_object_id": "2025-281S",
        "meta_epoch": "2025-12-14T06:00:02.999808",
        "meta_mean_motion": 15.87315119,
        "meta_eccentricity": 0.00013951,
        "meta_inclination": 43.0009,
        "meta_ra_of_asc_node": 112.9359,
        "meta_arg_of_pericenter": 266.4786,
        "meta_mean_anomaly": 295.3228,
        "meta_ephemeris_type": 0,
        "meta_classification_type": "U",
        "meta_norad_cat_id": 66864,
        "meta_element_set_no": 999,
        "meta_rev_at_epoch": 167,
        "meta_bstar": -0.0052636939,
        "meta_mean_motion_dot": -0.01266834,
        "meta_mean_motion_ddot": 0,
        "tle_line1": "1 66864U 25281S   25348.25003472 -.01266834  00000+0 -52637-2 0  9999",
        "tle_line2": "2 66864  43.0009 112.9359 0001395 266.4786 295.3228 15.87315119  1671"
      },
      "geometry": {
        "type": "Point",
        "coordinates": [
          -149.73649793226193,
          42.44047881253706
        ]
      }
    }
  ]
}